BEIJING 1               
1 28890U 05043A   26062.17704856  .00000259  00000+0  59442-4 0  9996
2 28890  98.2713 194.9083 0013394 252.2400 107.7341 14.63451830 85144
HUANJING 1A (HJ-1A)     
1 33320U 08041A   26062.22841764  .00001478  00000+0  18444-3 0  9997
2 33320  97.6619  52.2229 0020301 123.2658 237.0505 14.83692133942698
HUANJING 1B (HJ-1B)     
1 33321U 08041B   26062.21901941  .00002040  00000+0  25393-3 0  9998
2 33321  97.6468  55.6948 0036541 168.7297 191.4744 14.83085165942703
YAOGAN-4                
1 33446U 08061A   26061.77020872  .00001661  00000+0  21090-3 0  9991
2 33446  97.9243 356.1272 0015697  60.0888 300.1883 14.82952036929890
DEIMOS-1                
1 35681U 09041A   26062.16845706  .00001048  00000+0  16245-3 0  9993
2 35681  97.7237 224.0753 0001937 128.1514 231.9870 14.75103118891251
UK-DMC 2                
1 35683U 09041C   26062.19509622  .00000903  00000+0  13892-3 0  9996
2 35683  97.8635 199.8728 0001076  89.3781 270.7552 14.75831758890935
DMC3-FM1                
1 40715U 15032A   26062.19501809  .00001478  00000+0  17668-3 0  9997
2 40715  97.6629 291.4336 0006835  51.3141 308.8685 14.85602509574175
DMC3-FM2                
1 40716U 15032B   26062.15001358  .00000997  00000+0  12110-3 0  9990
2 40716  97.6687 292.8911 0007473  55.0097 305.1820 14.85605565574169
DMC3-FM3                
1 40717U 15032C   26062.17305234  .00000398  00000+0  52025-4 0  9998
2 40717  97.6739 294.5974 0006754  55.7156 304.4698 14.85566120574179
