[{"OBJECT_NAME":"BEIJING 1","OBJECT_ID":"2005-043A","EPOCH":"2026-03-03T04:14:56.995584","MEAN_MOTION":14.6345183,"ECCENTRICITY":0.0013394,"INCLINATION":98.2713,"RA_OF_ASC_NODE":194.9083,"ARG_OF_PERICENTER":252.24,"MEAN_ANOMALY":107.7341,"EPHEMERIS_TYPE":0,"CLASSIFICATION_TYPE":"U","NORAD_CAT_ID":28890,"ELEMENT_SET_NO":999,"REV_AT_EPOCH":8514,"BSTAR":5.9442e-5,"MEAN_MOTION_DOT":2.59e-6,"MEAN_MOTION_DDOT":0},{"OBJECT_NAME":"HUANJING 1A (HJ-1A)","OBJECT_ID":"2008-041A","EPOCH":"2026-03-03T05:28:55.284096","MEAN_MOTION":14.83692133,"ECCENTRICITY":0.0020301,"INCLINATION":97.6619,"RA_OF_ASC_NODE":52.2229,"ARG_OF_PERICENTER":123.2658,"MEAN_ANOMALY":237.0505,"EPHEMERIS_TYPE":0,"CLASSIFICATION_TYPE":"U","NORAD_CAT_ID":33320,"ELEMENT_SET_NO":999,"REV_AT_EPOCH":94269,"BSTAR":0.00018444,"MEAN_MOTION_DOT":1.478e-5,"MEAN_MOTION_DDOT":0},{"OBJECT_NAME":"HUANJING 1B (HJ-1B)","OBJECT_ID":"2008-041B","EPOCH":"2026-03-03T05:15:23.277024","MEAN_MOTION":14.83085165,"ECCENTRICITY":0.0036541,"INCLINATION":97.6468,"RA_OF_ASC_NODE":55.6948,"ARG_OF_PERICENTER":168.7297,"MEAN_ANOMALY":191.4744,"EPHEMERIS_TYPE":0,"CLASSIFICATION_TYPE":"U","NORAD_CAT_ID":33321,"ELEMENT_SET_NO":999,"REV_AT_EPOCH":94270,"BSTAR":0.00025393,"MEAN_MOTION_DOT":2.04e-5,"MEAN_MOTION_DDOT":0},{"OBJECT_NAME":"YAOGAN-4","OBJECT_ID":"2008-061A","EPOCH":"2026-03-02T18:29:06.033408","MEAN_MOTION":14.82952036,"ECCENTRICITY":0.00156975,"INCLINATION":97.9243,"RA_OF_ASC_NODE":356.1272,"ARG_OF_PERICENTER":60.0888,"MEAN_ANOMALY":300.1883,"EPHEMERIS_TYPE":0,"CLASSIFICATION_TYPE":"U","NORAD_CAT_ID":33446,"ELEMENT_SET_NO":999,"REV_AT_EPOCH":92989,"BSTAR":0.00021090046,"MEAN_MOTION_DOT":1.661e-5,"MEAN_MOTION_DDOT":0},{"OBJECT_NAME":"DEIMOS-1","OBJECT_ID":"2009-041A","EPOCH":"2026-03-03T04:02:34.689984","MEAN_MOTION":14.75103118,"ECCENTRICITY":0.0001937,"INCLINATION":97.7237,"RA_OF_ASC_NODE":224.0753,"ARG_OF_PERICENTER":128.1514,"MEAN_ANOMALY":231.987,"EPHEMERIS_TYPE":0,"CLASSIFICATION_TYPE":"U","NORAD_CAT_ID":35681,"ELEMENT_SET_NO":999,"REV_AT_EPOCH":89125,"BSTAR":0.00016245,"MEAN_MOTION_DOT":1.048e-5,"MEAN_MOTION_DDOT":0},{"OBJECT_NAME":"UK-DMC 2","OBJECT_ID":"2009-041C","EPOCH":"2026-03-03T04:40:56.313408","MEAN_MOTION":14.75831758,"ECCENTRICITY":0.0001076,"INCLINATION":97.8635,"RA_OF_ASC_NODE":199.8728,"ARG_OF_PERICENTER":89.3781,"MEAN_ANOMALY":270.7552,"EPHEMERIS_TYPE":0,"CLASSIFICATION_TYPE":"U","NORAD_CAT_ID":35683,"ELEMENT_SET_NO":999,"REV_AT_EPOCH":89093,"BSTAR":0.00013892,"MEAN_MOTION_DOT":9.03e-6,"MEAN_MOTION_DDOT":0},{"OBJECT_NAME":"DMC3-FM1","OBJECT_ID":"2015-032A","EPOCH":"2026-03-03T04:40:49.562976","MEAN_MOTION":14.85602509,"ECCENTRICITY":0.0006835,"INCLINATION":97.6629,"RA_OF_ASC_NODE":291.4336,"ARG_OF_PERICENTER":51.3141,"MEAN_ANOMALY":308.8685,"EPHEMERIS_TYPE":0,"CLASSIFICATION_TYPE":"U","NORAD_CAT_ID":40715,"ELEMENT_SET_NO":999,"REV_AT_EPOCH":57417,"BSTAR":0.00017668,"MEAN_MOTION_DOT":1.478e-5,"MEAN_MOTION_DDOT":0},{"OBJECT_NAME":"DMC3-FM2","OBJECT_ID":"2015-032B","EPOCH":"2026-03-03T03:36:01.173312","MEAN_MOTION":14.85605565,"ECCENTRICITY":0.0007473,"INCLINATION":97.6687,"RA_OF_ASC_NODE":292.8911,"ARG_OF_PERICENTER":55.0097,"MEAN_ANOMALY":305.182,"EPHEMERIS_TYPE":0,"CLASSIFICATION_TYPE":"U","NORAD_CAT_ID":40716,"ELEMENT_SET_NO":999,"REV_AT_EPOCH":57416,"BSTAR":0.0001211,"MEAN_MOTION_DOT":9.97e-6,"MEAN_MOTION_DDOT":0},{"OBJECT_NAME":"DMC3-FM3","OBJECT_ID":"2015-032C","EPOCH":"2026-03-03T04:09:11.722176","MEAN_MOTION":14.8556612,"ECCENTRICITY":0.0006754,"INCLINATION":97.6739,"RA_OF_ASC_NODE":294.5974,"ARG_OF_PERICENTER":55.7156,"MEAN_ANOMALY":304.4698,"EPHEMERIS_TYPE":0,"CLASSIFICATION_TYPE":"U","NORAD_CAT_ID":40717,"ELEMENT_SET_NO":999,"REV_AT_EPOCH":57417,"BSTAR":5.2025e-5,"MEAN_MOTION_DOT":3.98e-6,"MEAN_MOTION_DDOT":0}]
